{
  "type": "FeatureCollection",
  "features": [
    {
      "type": "Feature",
      "properties": {
        "norad_id": 58701,
        "name": "TIANMU-1 16",
        "group": "weather",
        "lat": 63.96756591251133,
        "lon": 143.9188545225853,
        "alt_km": 487.12619191223166,
        "timestamp": "2025-12-04T13:52:00.092003+00:00",
        "meta_object_name": "TIANMU-1 16",
        "meta_object_id": "2024-004B",
        "meta_epoch": "2025-12-04T04:07:45.875136",
        "meta_mean_motion": 15.2424919,
        "meta_eccentricity": 0.00050435,
        "meta_inclination": 97.4575,
        "meta_ra_of_asc_node": 159.0714,
        "meta_arg_of_pericenter": 331.4441,
        "meta_mean_anomaly": 28.6519,
        "meta_ephemeris_type": 0,
        "meta_classification_type": "U",
        "meta_norad_cat_id": 58701,
        "meta_element_set_no": 999,
        "meta_rev_at_epoch": 10604,
        "meta_bstar": 8.2071488e-05,
        "meta_mean_motion_dot": 1.931e-05,
        "meta_mean_motion_ddot": 0,
        "tle_line1": "1 58701U 24004B   25338.17205874  .00001931  00000+0  82071-4 0  9991",
        "tle_line2": "2 58701  97.4575 159.0714 0005043 331.4441  28.6519 15.24249190106048"
      },
      "geometry": {
        "type": "Point",
        "coordinates": [
          143.9188545225853,
          63.96756591251133
        ]
      }
    },
    {
      "type": "Feature",
      "properties": {
        "norad_id": 58702,
        "name": "TIANMU-1 17",
        "group": "weather",
        "lat": 31.429465126147274,
        "lon": -15.526549193961545,
        "alt_km": 494.07139285286576,
        "timestamp": "2025-12-04T13:52:00.092013+00:00",
        "meta_object_name": "TIANMU-1 17",
        "meta_object_id": "2024-004C",
        "meta_epoch": "2025-12-04T08:29:32.028288",
        "meta_mean_motion": 15.24303656,
        "meta_eccentricity": 0.00042317,
        "meta_inclination": 97.4596,
        "meta_ra_of_asc_node": 159.6579,
        "meta_arg_of_pericenter": 335.4727,
        "meta_mean_anomaly": 24.6309,
        "meta_ephemeris_type": 0,
        "meta_classification_type": "U",
        "meta_norad_cat_id": 58702,
        "meta_element_set_no": 999,
        "meta_rev_at_epoch": 10606,
        "meta_bstar": 0.00059623821,
        "meta_mean_motion_dot": 0.00014519,
        "meta_mean_motion_ddot": 0,
        "tle_line1": "1 58702U 24004C   25338.35384292  .00014519  00000+0  59624-3 0  9997",
        "tle_line2": "2 58702  97.4596 159.6579 0004231 335.4727  24.6309 15.24303656106069"
      },
      "geometry": {
        "type": "Point",
        "coordinates": [
          -15.526549193961545,
          31.429465126147274
        ]
      }
    },
    {
      "type": "Feature",
      "properties": {
        "norad_id": 58703,
        "name": "TIANMU-1 18",
        "group": "weather",
        "lat": -59.18598284022793,
        "lon": -32.61878294349199,
        "alt_km": 500.2857850317723,
        "timestamp": "2025-12-04T13:52:00.092024+00:00",
        "meta_object_name": "TIANMU-1 18",
        "meta_object_id": "2024-004D",
        "meta_epoch": "2025-12-04T08:05:25.257696",
        "meta_mean_motion": 15.24294434,
        "meta_eccentricity": 0.00036192,
        "meta_inclination": 97.4613,
        "meta_ra_of_asc_node": 159.8347,
        "meta_arg_of_pericenter": 336.377,
        "meta_mean_anomaly": 23.73,
        "meta_ephemeris_type": 0,
        "meta_classification_type": "U",
        "meta_norad_cat_id": 58703,
        "meta_element_set_no": 999,
        "meta_rev_at_epoch": 10606,
        "meta_bstar": 0.00060847584,
        "meta_mean_motion_dot": 0.00014814,
        "meta_mean_motion_ddot": 0,
        "tle_line1": "1 58703U 24004D   25338.33709789  .00014814  00000+0  60848-3 0  9996",
        "tle_line2": "2 58703  97.4613 159.8347 0003619 336.3770  23.7300 15.24294434106066"
      },
      "geometry": {
        "type": "Point",
        "coordinates": [
          -32.61878294349199,
          -59.18598284022793
        ]
      }
    },
    {
      "type": "Feature",
      "properties": {
        "norad_id": 58990,
        "name": "INSAT-3DS",
        "group": "weather",
        "lat": 0.021540264193945644,
        "lon": 3.7256457651063846,
        "alt_km": 35788.749369140816,
        "timestamp": "2025-12-04T13:52:00.092036+00:00",
        "meta_object_name": "INSAT-3DS",
        "meta_object_id": "2024-033A",
        "meta_epoch": "2025-12-04T01:49:38.770752",
        "meta_mean_motion": 1.00268791,
        "meta_eccentricity": 0.00017676,
        "meta_inclination": 0.0127,
        "meta_ra_of_asc_node": 334.3942,
        "meta_arg_of_pericenter": 285.4256,
        "meta_mean_anomaly": 282.8293,
        "meta_ephemeris_type": 0,
        "meta_classification_type": "U",
        "meta_norad_cat_id": 58990,
        "meta_element_set_no": 999,
        "meta_rev_at_epoch": 4511,
        "meta_bstar": 0,
        "meta_mean_motion_dot": 0,
        "meta_mean_motion_ddot": 0,
        "tle_line1": "1 58990U 24033A   25338.07614318  .00000000  00000+0  00000+0 0  9992",
        "tle_line2": "2 58990   0.0127 334.3942 0001767 285.4256 282.8293  1.00268791 45113"
      },
      "geometry": {
        "type": "Point",
        "coordinates": [
          3.7256457651063846,
          0.021540264193945644
        ]
      }
    },
    {
      "type": "Feature",
      "properties": {
        "norad_id": 59051,
        "name": "METEOR-M2 4",
        "group": "weather",
        "lat": 13.445494972873949,
        "lon": 117.70694876335068,
        "alt_km": 822.6799172674419,
        "timestamp": "2025-12-04T13:52:00.092047+00:00",
        "meta_object_name": "METEOR-M2 4",
        "meta_object_id": "2024-039A",
        "meta_epoch": "2025-12-04T08:01:23.133792",
        "meta_mean_motion": 14.22399275,
        "meta_eccentricity": 0.00074929,
        "meta_inclination": 98.6754,
        "meta_ra_of_asc_node": 295.3755,
        "meta_arg_of_pericenter": 21.979,
        "meta_mean_anomaly": 338.1708,
        "meta_ephemeris_type": 0,
        "meta_classification_type": "U",
        "meta_norad_cat_id": 59051,
        "meta_element_set_no": 999,
        "meta_rev_at_epoch": 9156,
        "meta_bstar": 5.9541393e-05,
        "meta_mean_motion_dot": 8.9e-07,
        "meta_mean_motion_ddot": 0,
        "tle_line1": "1 59051U 24039A   25338.33429553  .00000089  00000+0  59541-4 0  9997",
        "tle_line2": "2 59051  98.6754 295.3755 0007492  21.9790 338.1708 14.22399275 91562"
      },
      "geometry": {
        "type": "Point",
        "coordinates": [
          117.70694876335068,
          13.445494972873949
        ]
      }
    },
    {
      "type": "Feature",
      "properties": {
        "norad_id": 60133,
        "name": "GOES 19",
        "group": "weather",
        "lat": -2.2453434946268756e-05,
        "lon": -153.56799281336703,
        "alt_km": 35786.57777554114,
        "timestamp": "2025-12-04T13:52:00.092058+00:00",
        "meta_object_name": "GOES 19",
        "meta_object_id": "2024-119A",
        "meta_epoch": "2025-12-04T06:31:12.588672",
        "meta_mean_motion": 1.00270633,
        "meta_eccentricity": 0.0001386,
        "meta_inclination": 0.0086,
        "meta_ra_of_asc_node": 73.4081,
        "meta_arg_of_pericenter": 224.7152,
        "meta_mean_anomaly": 157.8472,
        "meta_ephemeris_type": 0,
        "meta_classification_type": "U",
        "meta_norad_cat_id": 60133,
        "meta_element_set_no": 999,
        "meta_rev_at_epoch": 501,
        "meta_bstar": 0,
        "meta_mean_motion_dot": -2.33e-06,
        "meta_mean_motion_ddot": 0,
        "tle_line1": "1 60133U 24119A   25338.27167348 -.00000233  00000+0  00000+0 0  9996",
        "tle_line2": "2 60133   0.0086  73.4081 0001386 224.7152 157.8472  1.00270633  5015"
      },
      "geometry": {
        "type": "Point",
        "coordinates": [
          -153.56799281336703,
          -2.2453434946268756e-05
        ]
      }
    },
    {
      "type": "Feature",
      "properties": {
        "norad_id": 65815,
        "name": "FENGYUN 3H",
        "group": "weather",
        "lat": 60.32732942369408,
        "lon": 113.85550687219062,
        "alt_km": 819.4885829992436,
        "timestamp": "2025-12-04T13:52:00.092069+00:00",
        "meta_object_name": "FENGYUN 3H",
        "meta_object_id": "2025-219A",
        "meta_epoch": "2025-12-04T06:32:45.752928",
        "meta_mean_motion": 14.19901033,
        "meta_eccentricity": 6.258e-05,
        "meta_inclination": 98.6572,
        "meta_ra_of_asc_node": 278.0475,
        "meta_arg_of_pericenter": 72.872,
        "meta_mean_anomaly": 287.2525,
        "meta_ephemeris_type": 0,
        "meta_classification_type": "U",
        "meta_norad_cat_id": 65815,
        "meta_element_set_no": 999,
        "meta_rev_at_epoch": 972,
        "meta_bstar": 0.00011554288,
        "meta_mean_motion_dot": 2.02e-06,
        "meta_mean_motion_ddot": 0,
        "tle_line1": "1 65815U 25219A   25338.27275177  .00000202  00000+0  11554-3 0  9995",
        "tle_line2": "2 65815  98.6572 278.0475 0000625  72.8720 287.2525 14.19901033  9726"
      },
      "geometry": {
        "type": "Point",
        "coordinates": [
          113.85550687219062,
          60.32732942369408
        ]
      }
    }
  ]
}